JCSAT-18 (KACIFIC 1)    
1 44868U 19091A   26190.74115346 -.00000188  00000+0  00000+0 0  9995
2 44868   0.0478 230.6356 0000412   2.8482 111.0017  1.00271633 24232
ELEKTRO-L 3             
1 44903U 19095A   26191.86710506 -.00000088  00000+0  00000+0 0  9991
2 44903   0.3141  82.1911 0001231  18.8487 215.8924  1.00271405 23945
SHIJIAN-20 (SJ-20)      
1 44910U 19097A   26191.86095169  .00000139  00000+0  00000+0 0  9998
2 44910   4.9759  74.7737 0015278  56.8684 151.9164  1.00267078 23934
TJS-5                   
1 44978U 20002A   26191.87334509 -.00000334  00000+0  00000+0 0  9993
2 44978   0.0517  73.5153 0007751 341.0591 296.1310  1.00270451 23944
GSAT-30                 
1 45026U 20005A   26191.86849174 -.00000156  00000+0  00000+0 0  9991
2 45026   0.0368  92.9229 0003139   1.4784 230.0376  1.00269322 23741
EUTELSAT KONNECT        
1 45027U 20005B   26191.56830425  .00000059  00000+0  00000+0 0  9999
2 45027   0.0684  93.5469 0001971 143.6727 263.0693  1.00268699 24570
JCSAT-17                
1 45245U 20013A   26191.87897845 -.00000305  00000+0  00000+0 0  9998
2 45245   5.3920 357.0819 0002865 126.9722 257.1928  1.00270837 23472
GEO-KOMPSAT-2B          
1 45246U 20013B   26191.87741845 -.00000335  00000+0  00000+0 0  9990
2 45246   0.0476 231.8746 0000703   4.6237 136.4215  1.00272068 23512
BEIDOU-3 G2             
1 45344U 20017A   26191.86788507 -.00000134  00000+0  00000+0 0  9995
2 45344   2.9090  47.6619 0002106  58.3803 215.2371  1.00269782 23495
AEHF-6 (USA 298)        
1 45465U 20022B   26191.87941178 -.00000286  00000+0  00000+0 0  9999
2 45465   2.4982 301.4352 0042056  15.4383  66.2675  1.00272925 23252
BEIDOU-3 G3             
1 45807U 20040A   26191.87395177 -.00000347  00000+0  00000+0 0  9999
2 45807   2.5017  67.4778 0001802 329.0911 317.3230  1.00266257 22301
APSTAR-6D               
1 45863U 20045A   26191.87854513 -.00000309  00000+0  00000+0 0  9998
2 45863   0.0411  90.0938 0001086  19.0316 269.9659  1.00271074 22099
KOREASAT 116            
1 45920U 20048A   26191.87507844 -.00000353  00000+0  00000+0 0  9996
2 45920   0.0122  23.3363 0000763  94.4762 242.2187  1.00268899 21872
EXPRESS 103             
1 45985U 20053A   26191.87117841 -.00000272  00000+0  00000+0 0  9997
2 45985   0.0311 263.0654 0001165 197.3528 238.4953  1.00271551 21887
EXPRESS 80              
1 45986U 20053B   26190.97809957  .00000000  00000+0  00000+0 0  9992
2 45986   0.0188  22.6215 0001726 195.3381 142.0283  1.00270945 21860
BSAT-4B                 
1 46112U 20056A   26191.87377844 -.00000341  00000+0  00000+0 0  9991
2 46112   0.0459 193.5714 0004153 296.6665 222.9424  1.00270463 21626
MEV-2                   
1 46113U 20056B   26191.85186566 -.00000003  00000+0  00000+0 0  9994
2 46113   0.0513 260.4686 0000413 348.4775 345.4882  1.00269666 80956
GALAXY 30 (G-30)        
1 46114U 20056C   26191.75598000  .00000000  00000+0  00000+0 0  9990
2 46114   0.0271  38.4291 0001926  76.0082 321.3874  1.00270462 21526
GAOFEN-13 01            
1 46610U 20071A   26191.87551177 -.00000354  00000+0  00000+0 0  9998
2 46610   0.4563  86.2008 0045197 120.4680 155.5605  1.00267936 21158
TIANTONG-1 2            
1 46916U 20082A   26191.87681178 -.00000346  00000+0  00000+0 0  9995
2 46916   0.7629 330.9653 0001328 140.3260 258.0931  1.00268825 20890
LUCAS (JDRS-1)          
1 47202U 20089A   26191.87005175 -.00000227  00000+0  00000+0 0  9996
2 47202   0.0402 274.9460 0001656 186.5410 231.3208  1.00271871 20657
SXM-7                   
1 47240U 20096A   26190.90840497 -.00000193  00000+0  00000+0 0  9995
2 47240   0.0261 100.2161 0003431  24.3135  45.1790  1.00273191  7678
CMS-01                  
1 47256U 20099A   26191.86849174 -.00000156  00000+0  00000+0 0  9991
2 47256   0.0635  91.5953 0003438 176.3666  56.4737  1.00271482 20431
TURKSAT 5A              
1 47306U 21001A   26191.05739304  .00000166  00000+0  00000+0 0  9995
2 47306   0.0154  69.6936 0000255 182.2164  87.6630  1.00271125 20198
TIANTONG-1 3            
1 47321U 21003A   26191.86823174 -.00000144  00000+0  00000+0 0  9999
2 47321   1.7389 340.7171 0003135 137.9114 204.2684  1.00271229 20190
TJS-6                   
1 47613U 21010A   26191.81607317  .00000051  00000+0  00000+0 0  9991
2 47613   0.1929 262.2384 0003162 237.6475 261.0880  1.00271618 20044
SBIRS GEO-5 (USA 315)   
1 48618U 21042A   26191.87822844 -.00000255  00000+0  00000+0 0  9999
2 48618   5.0747 329.2930 0001480 155.0807 214.3941  1.00270941 19018
FENGYUN 4B              
1 48808U 21047A   26191.58070218 -.00000319  00000+0  00000+0 0  9994
2 48808   0.2078  79.5500 0005740 273.4385 249.1781  1.00265170 18802
SXM-8                   
1 48838U 21049A   26191.17870207 -.00000194  00000+0  00000+0 0  9991
2 48838   0.0171  40.1187 0005283 351.3392 235.8336  1.00270362 18816
TIANLIAN 1-05           
1 49011U 21063A   26191.86642080  .00000115  00000+0  00000+0 0  9995
2 49011   1.6520  80.5008 0000889  87.6247  89.4135  1.00271490 18318
STAR ONE D2             
1 49055U 21069A   26191.12532706  .00000000  00000+0  00000+0 0  9994
2 49055   0.0150  27.8337 0002279  99.1180 136.1261  1.00270379 18175
EUTELSAT QUANTUM        
1 49056U 21069B   26191.86147169  .00000135  00000+0  00000+0 0  9990
2 49056   0.0236 313.7574 0002033 153.2585 179.5867  1.00269257 18165
