OBJECT_NAME,OBJECT_ID,EPOCH,MEAN_MOTION,ECCENTRICITY,INCLINATION,RA_OF_ASC_NODE,ARG_OF_PERICENTER,MEAN_ANOMALY,EPHEMERIS_TYPE,CLASSIFICATION_TYPE,NORAD_CAT_ID,ELEMENT_SET_NO,REV_AT_EPOCH,BSTAR,MEAN_MOTION_DOT,MEAN_MOTION_DDOT
JCSAT-18 (KACIFIC 1),2019-091A,2026-07-09T17:47:15.658944,1.00271633,.00004126,0.0478,230.6356,2.8482,111.0017,0,U,44868,999,2423,0,-.188E-5,0
ELEKTRO-L 3,2019-095A,2026-07-10T20:48:37.877184,1.00271405,.0001231,0.3141,82.1911,18.8487,215.8924,0,U,44903,999,2394,0,-.88E-6,0
SHIJIAN-20 (SJ-20),2019-097A,2026-07-10T20:39:46.226016,1.00267078,.0015278,4.9759,74.7737,56.8684,151.9164,0,U,44910,999,2393,0,.139E-5,0
TJS-5,2020-002A,2026-07-10T20:57:37.015776,1.00270451,.0007751,0.0517,73.5153,341.0591,296.1310,0,U,44978,999,2394,0,-.334E-5,0
GSAT-30,2020-005A,2026-07-10T20:50:37.686336,1.00269322,.0003139,0.0368,92.9229,1.4784,230.0376,0,U,45026,999,2374,0,-.156E-5,0
EUTELSAT KONNECT,2020-005B,2026-07-10T13:38:21.487200,1.00268699,.0001971,0.0684,93.5469,143.6727,263.0693,0,U,45027,999,2457,0,.59E-6,0
JCSAT-17,2020-013A,2026-07-10T21:05:43.738080,1.00270837,.0002865,5.3920,357.0819,126.9722,257.1928,0,U,45245,999,2347,0,-.305E-5,0
GEO-KOMPSAT-2B,2020-013B,2026-07-10T21:03:28.954080,1.00272068,.0000703,0.0476,231.8746,4.6237,136.4215,0,U,45246,999,2351,0,-.335E-5,0
BEIDOU-3 G2,2020-017A,2026-07-10T20:49:45.270048,1.00269782,.0002106,2.9090,47.6619,58.3803,215.2371,0,U,45344,999,2349,0,-.134E-5,0
AEHF-6 (USA 298),2020-022B,2026-07-10T21:06:21.177792,1.00272925,.0042056,2.4982,301.4352,15.4383,66.2675,0,U,45465,999,2325,0,-.286E-5,0
BEIDOU-3 G3,2020-040A,2026-07-10T20:58:29.432928,1.00266257,.0001802,2.5017,67.4778,329.0911,317.3230,0,U,45807,999,2230,0,-.347E-5,0
APSTAR-6D,2020-045A,2026-07-10T21:05:06.299232,1.00271074,.0001086,0.0411,90.0938,19.0316,269.9659,0,U,45863,999,2209,0,-.309E-5,0
KOREASAT 116,2020-048A,2026-07-10T21:00:06.777216,1.00268899,.0000763,0.0122,23.3363,94.4762,242.2187,0,U,45920,999,2187,0,-.353E-5,0
EXPRESS 103,2020-053A,2026-07-10T20:54:29.814624,1.00271551,.0001165,0.0311,263.0654,197.3528,238.4953,0,U,45985,999,2188,0,-.272E-5,0
EXPRESS 80,2020-053B,2026-07-09T23:28:27.802848,1.00270945,.0001726,0.0188,22.6215,195.3381,142.0283,0,U,45986,999,2186,0,0,0
BSAT-4B,2020-056A,2026-07-10T20:58:14.457216,1.00270463,.0004153,0.0459,193.5714,296.6665,222.9424,0,U,46112,999,2162,0,-.341E-5,0
MEV-2,2020-056B,2026-07-10T20:26:41.193024,1.00269666,.0000413,0.0513,260.4686,348.4775,345.4882,0,U,46113,999,8095,0,-.3E-7,0
GALAXY 30 (G-30),2020-056C,2026-07-10T18:08:36.672000,1.00270462,.0001926,0.0271,38.4291,76.0082,321.3874,0,U,46114,999,2152,0,0,0
GAOFEN-13 01,2020-071A,2026-07-10T21:00:44.216928,1.00267936,.0045197,0.4563,86.2008,120.4680,155.5605,0,U,46610,999,2115,0,-.354E-5,0
TIANTONG-1 2,2020-082A,2026-07-10T21:02:36.537792,1.00268825,.0001328,0.7629,330.9653,140.3260,258.0931,0,U,46916,999,2089,0,-.346E-5,0
LUCAS (JDRS-1),2020-089A,2026-07-10T20:52:52.471200,1.00271871,.0001656,0.0402,274.9460,186.5410,231.3208,0,U,47202,999,2065,0,-.227E-5,0
SXM-7,2020-096A,2026-07-09T21:48:06.189408,1.00273191,.00034317,0.0261,100.2161,24.3135,45.1790,0,U,47240,999,767,0,-.193E-5,0
CMS-01,2020-099A,2026-07-10T20:50:37.686336,1.00271482,.0003438,0.0635,91.5953,176.3666,56.4737,0,U,47256,999,2043,0,-.156E-5,0
TURKSAT 5A,2021-001A,2026-07-10T01:22:38.758656,1.00271125,.00002557,0.0154,69.6936,182.2164,87.6630,0,U,47306,999,2019,0,.166E-5,0
TIANTONG-1 3,2021-003A,2026-07-10T20:50:15.222336,1.00271229,.0003135,1.7389,340.7171,137.9114,204.2684,0,U,47321,999,2019,0,-.144E-5,0
TJS-6,2021-010A,2026-07-10T19:35:08.721888,1.00271618,.0003162,0.1929,262.2384,237.6475,261.0880,0,U,47613,999,2004,0,.51E-6,0
SBIRS GEO-5 (USA 315),2021-042A,2026-07-10T21:04:38.937216,1.00270941,.000148,5.0747,329.2930,155.0807,214.3941,0,U,48618,999,1901,0,-.255E-5,0
FENGYUN 4B,2021-047A,2026-07-10T13:56:12.668352,1.00265170,.00057409,0.2078,79.5500,273.4385,249.1781,0,U,48808,999,1880,0,-.319E-5,0
SXM-8,2021-049A,2026-07-10T04:17:19.858848,1.00270362,.0005283,0.0171,40.1187,351.3392,235.8336,0,U,48838,999,1881,0,-.194E-5,0
TIANLIAN 1-05,2021-063A,2026-07-10T20:47:38.757120,1.00271490,.0000889,1.6520,80.5008,87.6247,89.4135,0,U,49011,999,1831,0,.115E-5,0
STAR ONE D2,2021-069A,2026-07-10T03:00:28.257984,1.00270379,.00022792,0.0150,27.8337,99.1180,136.1261,0,U,49055,999,1817,0,0,0
EUTELSAT QUANTUM,2021-069B,2026-07-10T20:40:31.154016,1.00269257,.0002033,0.0236,313.7574,153.2585,179.5867,0,U,49056,999,1816,0,.135E-5,0
